[Satellite]
VERSION=1.1
NAME=GPS BIIRM-8 (PRN 05)
NICKNAME=GPS BIIRM-8 (PRN 05)
TLE1=1 35752U 09043A   18020.45554019  .00000032  00000-0  00000+0 0  9996
TLE2=2 35752  54.2889 150.7057 0051538  34.1559  42.0260  2.00568538 61776
